{
  "type": "FeatureCollection",
  "features": [{
    "type": "Feature",
    "properties": { "name": "Vietnam" },
    "geometry": {
      "type": "Polygon",
      "coordinates": [[
        [104.7, 10.4], [104.9, 10.2], [105.1, 10.0], [105.4, 9.9],
        [105.7, 9.6], [106.0, 9.5], [106.4, 9.5], [106.7, 9.7],
        [107.0, 10.0], [107.2, 10.3], [107.4, 10.7], [107.5, 11.0],
        [107.5, 11.4], [107.4, 11.8], [107.2, 12.2], [107.1, 12.6],
        [107.2, 13.0], [107.5, 13.4], [107.8, 13.8], [108.0, 14.2],
        [108.2, 14.7], [108.4, 15.2], [108.5, 15.8], [108.3, 16.1],
        [108.0, 16.3], [107.8, 16.6], [107.4, 17.0], [107.1, 17.4],
        [106.8, 17.8], [106.5, 18.2], [106.1, 18.6], [105.8, 19.1],
        [105.6, 19.6], [105.5, 20.1], [105.6, 20.6], [105.8, 21.0],
        [106.1, 21.4], [106.5, 21.7], [106.8, 22.0], [107.0, 22.4],
        [107.4, 22.7], [107.8, 22.9], [108.1, 22.8], [108.0, 22.5],
        [107.7, 22.2], [107.4, 22.0], [107.0, 21.8], [106.7, 21.5],
        [106.3, 21.2], [106.0, 20.9], [105.8, 20.5], [105.7, 20.1],
        [105.7, 19.6], [105.9, 19.1], [106.2, 18.6], [106.5, 18.2],
        [106.8, 17.8], [107.2, 17.3], [107.5, 16.9], [107.9, 16.4],
        [108.2, 16.1], [108.4, 15.8], [108.3, 15.4], [108.0, 14.9],
        [107.7, 14.4], [107.4, 14.0], [107.2, 13.6], [107.1, 13.1],
        [107.1, 12.7], [107.3, 12.3], [107.5, 11.9], [107.6, 11.5],
        [107.5, 11.1], [107.3, 10.8], [107.0, 10.5], [106.7, 10.3],
        [106.4, 10.1], [106.0, 10.0], [105.7, 10.1], [105.4, 10.3],
        [105.1, 10.4], [104.8, 10.5], [104.7, 10.4]
      ]]
    }
  }]
}
